STARLINK-4742           
1 53795U 22111Y   22272.58334491  .00114420  00000+0  80759-3 0  9991
2 53795  53.2165 175.4117 0002153 144.8459 208.2087 15.73228530  2842
STARLINK Z              
1 53796U 22111Z   22272.12233414  .00112895  00000+0  49116-3 0  9991
2 53796  53.2035 176.7382 0006184 315.9270  44.1262 15.83965053  2860
STARLINK-4723           
1 53797U 22111AA  22272.25001157  .00055301  00000+0  39817-3 0  9998
2 53797  53.2172 177.0612 0000454  90.9841 174.1881 15.73062976  2795
STARLINK-4712           
1 53798U 22111AB  22272.25001157 -.00021864  00000+0 -15181-3 0  9996
2 53798  53.2158 177.0615 0001065  97.6331 166.7428 15.73194158  2781
STARLINK-4710           
1 53799U 22111AC  22272.58334491  .00110569  00000+0  78521-3 0  9999
2 53799  53.2170 175.4079 0000810 121.1973 233.9134 15.73101251  2833
STARLINK-4720           
1 53800U 22111AD  22271.91667824 -.00123515  00000+0 -88851-3 0  9991
2 53800  53.2178 178.7083 0001071 102.7859  74.0698 15.73203100  1309
STARLINK-4715           
1 53801U 22111AE  22272.25001157  .00136151  00000+0  96668-3 0  9994
2 53801  53.2163 177.0558 0000716  90.1742 177.3585 15.73009600  2783
STARLINK-4726           
1 53802U 22111AF  22272.58334491  .00111091  00000+0  78884-3 0  9997
2 53802  53.2166 175.4060 0000720 117.3408 238.4007 15.73101481  2837
STARLINK-4727           
1 53803U 22111AG  22272.25001157  .00053626  00000+0  38592-3 0  9993
2 53803  53.2159 177.0525 0000737  94.8186 173.8247 15.73087377  2783
STARLINK-4729           
1 53804U 22111AH  22271.91667824 -.00120645  00000+0 -86748-3 0  9999
2 53804  53.2169 178.7025 0001227 109.7984  69.4338 15.73202234  1304
STARLINK-4763           
1 53805U 22111AJ  22272.58334491  .00115412  00000+0  81911-3 0  9996
2 53805  53.2159 175.3999 0001272 112.9687 245.1499 15.73096106  2832
STARLINK-4768           
1 53806U 22111AK  22272.25001157  .00035206  00000+0  25549-3 0  9998
2 53806  53.2175 177.0520 0001120  96.0381 173.8636 15.73081905  2780
BLUEWALKER-3            
1 53807U 22111AL  22272.15358855  .00001927  00000+0  10797-3 0  9990
2 53807  53.2012 184.8459 0012305 346.0704  13.9951 15.18350953  2765
FALCON 9 DEB            
1 53808U 22111AM  22271.78766869  .00286835  00000+0  10085-2 0  9999
2 53808  53.2033 178.1958 0006256 284.0050  76.0281 15.87871799  2816
FALCON 9 DEB            
1 53809U 22111AN  22272.04568992  .00165422  00000+0  65247-3 0  9996
2 53809  53.2012 176.9631 0005825 329.4461  30.6225 15.85845475  3904
FALCON 9 DEB            
1 53810U 22111AP  22272.10268615  .00174268  00000+0  66116-3 0  9998
2 53810  53.2011 176.6036 0008826 322.0880  37.9523 15.86586711  2860
FALCON 9 DEB            
1 53811U 22111AQ  22271.99792416  .00164142  00000+0  69434-3 0  9992
2 53811  53.1967 177.3781 0005357 278.7765  81.2653 15.84396686  2842
FALCON 9 DEB            
1 53812U 22111AR  22272.12347961  .00123205  00000+0  53211-3 0  9991
2 53812  53.1987 176.7408 0007475 294.1722  65.8521 15.84069806  2867
CHINASAT 1E (ZX 1E)     
1 53813U 22112A   22271.55218344 -.00000147  00000+0  00000+0 0  9995
2 53813   1.4885 280.2473 0002520 250.5427 116.7234  1.00271479   249
CZ-7A R/B               
1 53814U 22112B   22271.48551843  .12436359  37052-4  53487-2 0  9994
2 53814  13.9255 205.6605 6675946 187.1733 153.6033  3.18733824   364
STRIX-1                 
1 53815U 22113A   22272.49837977  .00003676  00000+0  30092-3 0  9998
2 53815  97.6595 323.2146 0012051 254.3065 105.6852 14.99877109  2048
ELECTRON R/B            
1 53816U 22113B   22271.14747873  .22655063  20725-5  28177-3 0  9995
2 53816  97.6159 323.5414 0043231 193.2727 225.4717 16.44938793  1944
ELECTRON KICK STAGE R/B 
1 53817U 22113C   22272.09450957  .00004283  00000+0  34597-3 0  9994
2 53817  97.6577 322.8246 0012845 250.8090 109.1745 15.00287357  1981
STARLINK-4749           
1 53818U 22114A   22272.58334491 -.00002348  00000+0 -12315-4 0  9991
2 53818  53.2175 206.6473 0001152  64.4132 217.3311 15.73205090  2234
STARLINK-4738           
1 53819U 22114B   22272.58334491 -.00002341  00000+0 -12253-4 0  9996
2 53819  53.2175 206.6405 0001920 272.1202  12.6046 15.73205069  2236
STARLINK-4758           
1 53820U 22114C   22272.58334491 -.00002323  00000+0 -12139-4 0  9991
2 53820  53.2175 206.6462 0001105  71.4511 210.8893 15.73205077  2230
STARLINK-4752           
1 53821U 22114D   22272.58334491 -.00002319  00000+0 -12113-4 0  9999
2 53821  53.2175 206.6420 0001130  67.4690 216.6597 15.73205072  2236
STARLINK-4713           
1 53822U 22114E   22272.37704213  .00545812  11461-4  59094-3 0  9994
2 53822  53.2149 206.5710 0061050  82.5153 278.2811 16.05281744  2215
STARLINK-4748           
1 53823U 22114F   22272.58334491  .00147146  18670-4  54823-3 0  9997
2 53823  53.2142 206.0135 0018819  78.6776 146.9577 15.87489477  2242
STARLINK-4757           
1 53824U 22114G   22272.25001157 -.00015429  00000+0 -10565-3 0  9990
2 53824  53.2176 208.2907 0001314  70.3727 126.6039 15.73214192  2184
STARLINK-4751           
1 53825U 22114H   22272.58334491 -.00002322  00000+0 -12132-4 0  9998
2 53825  53.2175 206.6397 0001166  62.8204 222.5005 15.73205071  2231
STARLINK-4756           
1 53826U 22114J   22272.58334491 -.00002266  00000+0 -11731-4 0  9990
2 53826  53.2175 206.6342 0001110  70.8359 217.4656 15.73205038  2239
STARLINK-4764           
1 53827U 22114K   22272.58334491 -.00002395  00000+0 -12646-4 0  9990
2 53827  53.2175 206.6374 0001483  41.2817 245.2314 15.73205105  2234
STARLINK-4760           
1 53828U 22114L   22272.58334491 -.00002268  00000+0 -11746-4 0  9990
2 53828  53.2175 206.6331 0001130  67.5657 221.3319 15.73205038  2235
STARLINK-4759           
1 53829U 22114M   22272.25001157 -.00077364  00000+0 -55053-3 0  9992
2 53829  53.2175 208.2872 0001777  28.9653 169.1817 15.73255526  2181
STARLINK-4761           
1 53830U 22114N   22272.58334491 -.00002232  00000+0 -11493-4 0  9993
2 53830  53.2175 206.6307 0001091  74.7238 215.3660 15.73205019  2233
STARLINK-4649           
1 53831U 22114P   22272.25001157 -.00258003  00000+0 -18765-2 0  9994
2 53831  53.2177 208.2867 0001411 340.8463 217.8348 15.73375798  2184
STARLINK-4747           
1 53832U 22114Q   22272.58334491 -.00002247  00000+0 -11599-4 0  9998
2 53832  53.2175 206.6284 0001157  63.9211 227.3609 15.73205024  2235
STARLINK-4771           
1 53833U 22114R   22272.58334491 -.00002281  00000+0 -11838-4 0  9993
2 53833  53.2175 206.6316 0001184  60.8794 228.6143 15.73205043  2232
STARLINK-4737           
1 53834U 22114S   22272.58334491 -.00002225  00000+0 -11443-4 0  9994
2 53834  53.2175 206.6261 0001146  65.4064 227.0678 15.73205011  2232
STARLINK-4783           
1 53835U 22114T   22272.58334491 -.00002242  00000+0 -11560-4 0  9994
2 53835  53.2175 206.6293 0001124  68.5211 222.1648 15.73205022  2237
STARLINK-4778           
1 53836U 22114U   22272.58334491 -.00002212  00000+0 -11349-4 0  9997
2 53836  53.2175 206.6237 0001160  63.6931 229.9733 15.73205003  2230
STARLINK-4776           
1 53837U 22114V   22272.58334491 -.00002194  00000+0 -11218-4 0  9992
2 53837  53.2175 206.6269 0001074  79.7890 212.0891 15.73204997  2231
STARLINK-4773           
1 53838U 22114W   22272.58334491 -.00002240  00000+0 -11547-4 0  9990
2 53838  53.2175 206.6227 0001282  52.5558 241.7067 15.73205015  2233
STARLINK-4784           
1 53839U 22114X   22272.58334491 -.00002223  00000+0 -11427-4 0  9999
2 53839  53.2175 206.6246 0001164  63.1400 229.9304 15.73205009  2233
STARLINK-4766           
1 53840U 22114Y   22272.58334491 -.00002130  00000+0 -10765-4 0  9992
2 53840  53.2175 206.6191 0001078  78.5296 217.5214 15.73204959  2237
STARLINK-4750           
1 53841U 22114Z   22272.58334491 -.00002162  00000+0 -10990-4 0  9998
2 53841  53.2175 206.6210 0001093  74.3830 220.4757 15.73204976  2239
STARLINK-4754           
1 53842U 22114AA  22272.58334491 -.00002151  00000+0 -10909-4 0  9997
2 53842  53.2175 206.6167 0001159  63.8274 233.4158 15.73204966  2237
STARLINK-4769           
1 53843U 22114AB  22272.58334491 -.00002223  00000+0 -11420-4 0  9997
2 53843  53.2175 206.6199 0001291  51.9037 243.5511 15.73205004  2234
STARLINK-4745           
1 53844U 22114AC  22272.58334491 -.00002115  00000+0 -10657-4 0  9999
2 53844  53.2175 206.6143 0001127  68.2053 230.2301 15.73204947  2236
STARLINK-4753           
1 53845U 22114AD  22272.58334491 -.00002167  00000+0 -11027-4 0  9999
2 53845  53.2175 206.6175 0001176  61.9339 234.7131 15.73204975  2234
STARLINK-4746           
1 53846U 22114AE  22272.58334491 -.00001770  00000+0 -81980-5 0  9995
2 53846  53.2175 206.6118 0001172  70.1858 229.4422 15.73204530  2237
STARLINK-4777           
1 53847U 22114AF  22272.58334491 -.00002115  00000+0 -10654-4 0  9999
2 53847  53.2175 206.6151 0001103  72.3140 225.5252 15.73204948  2238
STARLINK-4780           
1 53848U 22114AG  22272.58334491 -.00000966  00000+0 -24689-5 0  9996
2 53848  53.2175 206.6095 0001234  81.5912 219.2294 15.73203776  2234
STARLINK-4770           
1 53849U 22114AH  22272.58334491 -.00001265  00000+0 -45968-5 0  9993
2 53849  53.2175 206.6128 0001144  69.0519 229.9799 15.73204349  2231
STARLINK-4767           
1 53850U 22114AJ  22272.58334491  .00003933  00000+0  32423-4 0  9998
2 53850  53.2175 206.6059 0001083  74.3931 228.2173 15.73200840  2235
STARLINK-4755           
1 53851U 22114AK  22272.58334491 -.00001366  00000+0 -53171-5 0  9993
2 53851  53.2175 206.6105 0001187  84.0452 216.1791 15.73204122  2238
STARLINK-4797           
1 53852U 22114AL  22272.58334491  .00004612  00000+0  37256-4 0  9994
2 53852  53.2175 206.6035 0001108  59.0624 244.7406 15.73200362  2239
STARLINK-4794           
1 53853U 22114AM  22272.58334491  .00000181  00000+0  57077-5 0  9996
2 53853  53.2175 206.6080 0001226  79.3025 222.1146 15.73203053  2232
